CAS-2T & KS-1Q          
1 41847U 16066G   20148.26341503  .00000031  00000-0  15994-4 0  9998
2 41847  98.6555 198.5606 0364570 292.1580  64.1296 14.38065200186373
NAYIF-1 (EO-88)         
1 42017U 17008BX  20147.85124227  .00001236  00000-0  50174-4 0  9998
2 42017  97.3606 215.7277 0007442  50.1508 310.0384 15.26444150182253
MAX VALIER SAT          
1 42778U 17036P   20148.77227136  .00000787  00000-0  36746-4 0  9997
2 42778  97.3063 202.9785 0014077  95.1127 265.1717 15.22586157162588
RADFXSAT (FOX-1B)       
1 43017U 17073E   20148.68649204  .00000348  00000-0  31964-4 0  9999
2 43017  97.7238  61.7245 0258326 117.8666 244.8973 14.78912840136099
FOX-1D (AO-92)          
1 43137U 18004AC  20148.47479465  .00000837  00000-0  37390-4 0  9996
2 43137  97.4464 219.7768 0010609 124.1240 236.1005 15.24086659131855
DIWATA-2B               
1 43678U 18084H   20148.81299016 -.00000202  00000-0 -14350-4 0  9993
2 43678  97.8813 267.2207 0008709 242.4252 117.6098 14.91626272 85945
ES'HAIL 2               
1 43700U 18090A   20148.09355036  .00000149  00000-0  00000+0 0  9991
2 43700   0.0130 329.9216 0001051 101.3810 233.2843  1.00270261  5732
FOX-1CLIFF (AO-95)      
1 43770U 18099N   20148.75967350  .00000373  00000-0  39323-4 0  9992
2 43770  97.7065 220.4996 0012946 265.6572  94.3169 14.94979328 80820
ITASAT 1                
1 43786U 18099AE  20148.62746246  .00000352  00000-0  37085-4 0  9994
2 43786  97.7081 220.7744 0013581 259.1556 100.8137 14.95320571 80824
JY1SAT (JO-97)          
1 43803U 18099AX  20148.71133876 -.00000193  00000-0 -12157-4 0  9991
2 43803  97.7039 220.6807 0013674 259.4124 100.5557 14.95493233 80833
PSAT2 (NO-104)          
1 44354U 19036R   20147.15122506  .00007115  00000-0  10162-3 0  9992
2 44354  28.5272 167.0375 0365749  72.9108 291.1204 15.03231255 50458
BRICSAT2 (NO-103)       
1 44355U 19036S   20148.36152817  .00011900  00000-0  16472-3 0  9992
2 44355  28.5276 151.5076 0345392  98.1589 265.8322 15.08373923 50716
JAISAT-1                
1 44419U 19038F   20148.78546718  .00000606  00000-0  38167-4 0  9995
2 44419  97.5372 110.6260 0020932 197.7306 162.3197 15.12752688 49470
DUCHIFAT-3              
1 44854U 19089C   20148.57943227  .00000243  00000-0  26045-4 0  9996
2 44854  36.9674 221.7111 0008905 261.0728  98.9006 14.99056079 25161
RS-44 & BREEZE-KM R/B   
1 44909U 19096E   20148.87428312  .00000009  00000-0  00000-0 0  9990
2 44909  82.5223   8.9905 0216268 274.7486  82.8970 12.79707328 19554
ORBITAL FACTORY 2 (OF-2)
1 45113U 19071C   20148.04132299  .00001404  00000-0  54527-4 0  9993
2 45113  51.6441 106.9777 0013021 343.1673  16.8875 15.33274814 17841
HUSKYSAT-1              
1 45119U 19071J   20147.89246697  .00001457  00000-0  55788-4 0  9997
2 45119  51.6435 107.4846 0012261 339.1109  20.9371 15.33499389 17817
